[{"OBJECT_NAME":"FENGYUN 3F","OBJECT_ID":"2023-111A","EPOCH":"2026-03-09T23:16:34.953600","MEAN_MOTION":14.19919562,"ECCENTRICITY":0.00012463,"INCLINATION":98.6928,"RA_OF_ASC_NODE":140.7948,"ARG_OF_PERICENTER":79.4466,"MEAN_ANOMALY":280.6851,"EPHEMERIS_TYPE":0,"CLASSIFICATION_TYPE":"U","NORAD_CAT_ID":57490,"ELEMENT_SET_NO":999,"REV_AT_EPOCH":13478,"BSTAR":6.0252393e-5,"MEAN_MOTION_DOT":8.4e-7,"MEAN_MOTION_DDOT":0},{"OBJECT_NAME":"SL-3 R\/B","OBJECT_ID":"1974-025B","EPOCH":"2026-03-09T15:24:09.844704","MEAN_MOTION":14.07078166,"ECCENTRICITY":0.0056304,"INCLINATION":81.2406,"RA_OF_ASC_NODE":109.291,"ARG_OF_PERICENTER":265.4008,"MEAN_ANOMALY":94.0729,"EPHEMERIS_TYPE":0,"CLASSIFICATION_TYPE":"U","NORAD_CAT_ID":7275,"ELEMENT_SET_NO":999,"REV_AT_EPOCH":66119,"BSTAR":0.0001228,"MEAN_MOTION_DOT":2.2e-6,"MEAN_MOTION_DDOT":0}]
